OBJECT B                
1 51825U 22019B   24274.87675736  .00031303  00000+0  12087-2 0  9992
2 51825  97.4194 345.1466 0012831 221.8707 138.1551 15.26134323143325
